STARLINK-36890          
1 68258U 26054AC  26085.16668981 -.02002960  00000+0 -90304-2 0  9990
2 68258  53.1587 229.8845 0000782  66.0761 250.7609 15.86298013  2566
STARLINK-36323          
1 68259U 26054AD  26085.16668981 -.02015110  00000+0 -92848-2 0  9997
2 68259  53.1588 229.8983 0000782  79.9501 230.2379 15.85877295  2602
STARLINK-37056          
1 68260U 26054AE  26085.16668981 -.01983584  00000+0 -88505-2 0  9992
2 68260  53.1586 229.8774 0000688  75.9249 244.2818 15.86478494  2567
TEN-KOH 2               
1 68261U 25241B   26085.15951384  .00008507  00000+0  37374-3 0  9990
2 68261  51.6374 354.5563 0004429 214.5406 145.5284 15.22690949  2258
STARLINK-37162          
1 68262U 26055A   26085.16668981 -.01006657  33728-3 -18813-2 0  9994
2 68262  53.1596 255.3860 0000675  80.3185  93.8135 16.00303388  2280
STARLINK-37156          
1 68263U 26055B   26085.16668981 -.01010147  33973-3 -18781-2 0  9990
2 68263  53.1595 255.3831 0000683  80.8464  94.8986 16.00393957  2288
STARLINK-37163          
1 68264U 26055C   26085.16668981 -.01011535  34151-3 -18535-2 0  9999
2 68264  53.1593 255.3743 0000713  77.4455 102.2479 16.00646650  2287
STARLINK-37133          
1 68265U 26055D   26085.16668981 -.01008774  33936-3 -18617-2 0  9992
2 68265  53.1595 255.3787 0000657  77.5825 100.1898 16.00521901  2280
STARLINK-37042          
1 68266U 26055E   26085.16668981 -.01015155  34434-3 -18425-2 0  9995
2 68266  53.1594 255.3695 0000685  77.1328 105.0850 16.00812036  2287
STARLINK-37103          
1 68267U 26055F   26085.16668981 -.01016638  34578-3 -18303-2 0  9997
2 68267  53.1595 255.3647 0000768  79.7278 104.6461 16.00952183  2281
STARLINK-36999          
1 68268U 26055G   26085.16668981 -.01018472  34739-3 -18203-2 0  9994
2 68268  53.1595 255.3609 0000653  80.9150 105.3935 16.01078079  2284
STARLINK-36962          
1 68269U 26055H   26085.16668981 -.01016541  34670-3 -18028-2 0  9999
2 68269  53.1594 255.3565 0000725  84.7676 103.5945 16.01210977  2286
