CCSDS_OMM_VERS = 2.0
CREATION_DATE  = 
ORIGINATOR     = 

OBJECT_NAME    = STARLINK-36890
OBJECT_ID      = 2026-054AC
CENTER_NAME    = EARTH
REF_FRAME      = TEME
TIME_SYSTEM    = UTC
MEAN_ELEMENT_THEORY = SGP/SGP4

EPOCH          = 2026-03-26T04:00:01.999584
MEAN_MOTION    = 15.86298013
ECCENTRICITY   = .0000782
INCLINATION    = 53.1587
RA_OF_ASC_NODE = 229.8845
ARG_OF_PERICENTER = 66.0761
MEAN_ANOMALY   = 250.7609

EPHEMERIS_TYPE = 0
CLASSIFICATION_TYPE = U
NORAD_CAT_ID   = 68258
ELEMENT_SET_NO = 999
REV_AT_EPOCH   = 256
BSTAR          = -.90304E-2
MEAN_MOTION_DOT = -.200296E-1
MEAN_MOTION_DDOT = 0

CCSDS_OMM_VERS = 2.0
CREATION_DATE  = 
ORIGINATOR     = 

OBJECT_NAME    = STARLINK-36323
OBJECT_ID      = 2026-054AD
CENTER_NAME    = EARTH
REF_FRAME      = TEME
TIME_SYSTEM    = UTC
MEAN_ELEMENT_THEORY = SGP/SGP4

EPOCH          = 2026-03-26T04:00:01.999584
MEAN_MOTION    = 15.85877295
ECCENTRICITY   = .0000782
INCLINATION    = 53.1588
RA_OF_ASC_NODE = 229.8983
ARG_OF_PERICENTER = 79.9501
MEAN_ANOMALY   = 230.2379

EPHEMERIS_TYPE = 0
CLASSIFICATION_TYPE = U
NORAD_CAT_ID   = 68259
ELEMENT_SET_NO = 999
REV_AT_EPOCH   = 260
BSTAR          = -.92848E-2
MEAN_MOTION_DOT = -.201511E-1
MEAN_MOTION_DDOT = 0

CCSDS_OMM_VERS = 2.0
CREATION_DATE  = 
ORIGINATOR     = 

OBJECT_NAME    = STARLINK-37056
OBJECT_ID      = 2026-054AE
CENTER_NAME    = EARTH
REF_FRAME      = TEME
TIME_SYSTEM    = UTC
MEAN_ELEMENT_THEORY = SGP/SGP4

EPOCH          = 2026-03-26T04:00:01.999584
MEAN_MOTION    = 15.86478494
ECCENTRICITY   = .0000688
INCLINATION    = 53.1586
RA_OF_ASC_NODE = 229.8774
ARG_OF_PERICENTER = 75.9249
MEAN_ANOMALY   = 244.2818

EPHEMERIS_TYPE = 0
CLASSIFICATION_TYPE = U
NORAD_CAT_ID   = 68260
ELEMENT_SET_NO = 999
REV_AT_EPOCH   = 256
BSTAR          = -.88505E-2
MEAN_MOTION_DOT = -.1983584E-1
MEAN_MOTION_DDOT = 0

CCSDS_OMM_VERS = 2.0
CREATION_DATE  = 
ORIGINATOR     = 

OBJECT_NAME    = TEN-KOH 2
OBJECT_ID      = 2025-241B
CENTER_NAME    = EARTH
REF_FRAME      = TEME
TIME_SYSTEM    = UTC
MEAN_ELEMENT_THEORY = SGP/SGP4

EPOCH          = 2026-03-26T03:49:41.995776
MEAN_MOTION    = 15.22690949
ECCENTRICITY   = .0004429
INCLINATION    = 51.6374
RA_OF_ASC_NODE = 354.5563
ARG_OF_PERICENTER = 214.5406
MEAN_ANOMALY   = 145.5284

EPHEMERIS_TYPE = 0
CLASSIFICATION_TYPE = U
NORAD_CAT_ID   = 68261
ELEMENT_SET_NO = 999
REV_AT_EPOCH   = 225
BSTAR          = .37374E-3
MEAN_MOTION_DOT = .8507E-4
MEAN_MOTION_DDOT = 0

CCSDS_OMM_VERS = 2.0
CREATION_DATE  = 
ORIGINATOR     = 

OBJECT_NAME    = STARLINK-37162
OBJECT_ID      = 2026-055A
CENTER_NAME    = EARTH
REF_FRAME      = TEME
TIME_SYSTEM    = UTC
MEAN_ELEMENT_THEORY = SGP/SGP4

EPOCH          = 2026-03-26T04:00:01.999584
MEAN_MOTION    = 16.00303388
ECCENTRICITY   = .0000675
INCLINATION    = 53.1596
RA_OF_ASC_NODE = 255.3860
ARG_OF_PERICENTER = 80.3185
MEAN_ANOMALY   = 93.8135

EPHEMERIS_TYPE = 0
CLASSIFICATION_TYPE = U
NORAD_CAT_ID   = 68262
ELEMENT_SET_NO = 999
REV_AT_EPOCH   = 228
BSTAR          = -.18813E-2
MEAN_MOTION_DOT = -.1006657E-1
MEAN_MOTION_DDOT = .33728E-3

CCSDS_OMM_VERS = 2.0
CREATION_DATE  = 
ORIGINATOR     = 

OBJECT_NAME    = STARLINK-37156
OBJECT_ID      = 2026-055B
CENTER_NAME    = EARTH
REF_FRAME      = TEME
TIME_SYSTEM    = UTC
MEAN_ELEMENT_THEORY = SGP/SGP4

EPOCH          = 2026-03-26T04:00:01.999584
MEAN_MOTION    = 16.00393957
ECCENTRICITY   = .0000683
INCLINATION    = 53.1595
RA_OF_ASC_NODE = 255.3831
ARG_OF_PERICENTER = 80.8464
MEAN_ANOMALY   = 94.8986

EPHEMERIS_TYPE = 0
CLASSIFICATION_TYPE = U
NORAD_CAT_ID   = 68263
ELEMENT_SET_NO = 999
REV_AT_EPOCH   = 228
BSTAR          = -.18781E-2
MEAN_MOTION_DOT = -.1010147E-1
MEAN_MOTION_DDOT = .33973E-3

CCSDS_OMM_VERS = 2.0
CREATION_DATE  = 
ORIGINATOR     = 

OBJECT_NAME    = STARLINK-37163
OBJECT_ID      = 2026-055C
CENTER_NAME    = EARTH
REF_FRAME      = TEME
TIME_SYSTEM    = UTC
MEAN_ELEMENT_THEORY = SGP/SGP4

EPOCH          = 2026-03-26T04:00:01.999584
MEAN_MOTION    = 16.00646650
ECCENTRICITY   = .0000713
INCLINATION    = 53.1593
RA_OF_ASC_NODE = 255.3743
ARG_OF_PERICENTER = 77.4455
MEAN_ANOMALY   = 102.2479

EPHEMERIS_TYPE = 0
CLASSIFICATION_TYPE = U
NORAD_CAT_ID   = 68264
ELEMENT_SET_NO = 999
REV_AT_EPOCH   = 228
BSTAR          = -.18535E-2
MEAN_MOTION_DOT = -.1011535E-1
MEAN_MOTION_DDOT = .34151E-3

CCSDS_OMM_VERS = 2.0
CREATION_DATE  = 
ORIGINATOR     = 

OBJECT_NAME    = STARLINK-37133
OBJECT_ID      = 2026-055D
CENTER_NAME    = EARTH
REF_FRAME      = TEME
TIME_SYSTEM    = UTC
MEAN_ELEMENT_THEORY = SGP/SGP4

EPOCH          = 2026-03-26T04:00:01.999584
MEAN_MOTION    = 16.00521901
ECCENTRICITY   = .0000657
INCLINATION    = 53.1595
RA_OF_ASC_NODE = 255.3787
ARG_OF_PERICENTER = 77.5825
MEAN_ANOMALY   = 100.1898

EPHEMERIS_TYPE = 0
CLASSIFICATION_TYPE = U
NORAD_CAT_ID   = 68265
ELEMENT_SET_NO = 999
REV_AT_EPOCH   = 228
BSTAR          = -.18617E-2
MEAN_MOTION_DOT = -.1008774E-1
MEAN_MOTION_DDOT = .33936E-3

CCSDS_OMM_VERS = 2.0
CREATION_DATE  = 
ORIGINATOR     = 

OBJECT_NAME    = STARLINK-37042
OBJECT_ID      = 2026-055E
CENTER_NAME    = EARTH
REF_FRAME      = TEME
TIME_SYSTEM    = UTC
MEAN_ELEMENT_THEORY = SGP/SGP4

EPOCH          = 2026-03-26T04:00:01.999584
MEAN_MOTION    = 16.00812036
ECCENTRICITY   = .0000685
INCLINATION    = 53.1594
RA_OF_ASC_NODE = 255.3695
ARG_OF_PERICENTER = 77.1328
MEAN_ANOMALY   = 105.0850

EPHEMERIS_TYPE = 0
CLASSIFICATION_TYPE = U
NORAD_CAT_ID   = 68266
ELEMENT_SET_NO = 999
REV_AT_EPOCH   = 228
BSTAR          = -.18425E-2
MEAN_MOTION_DOT = -.1015155E-1
MEAN_MOTION_DDOT = .34434E-3

CCSDS_OMM_VERS = 2.0
CREATION_DATE  = 
ORIGINATOR     = 

OBJECT_NAME    = STARLINK-37103
OBJECT_ID      = 2026-055F
CENTER_NAME    = EARTH
REF_FRAME      = TEME
TIME_SYSTEM    = UTC
MEAN_ELEMENT_THEORY = SGP/SGP4

EPOCH          = 2026-03-26T04:00:01.999584
MEAN_MOTION    = 16.00952183
ECCENTRICITY   = .0000768
INCLINATION    = 53.1595
RA_OF_ASC_NODE = 255.3647
ARG_OF_PERICENTER = 79.7278
MEAN_ANOMALY   = 104.6461

EPHEMERIS_TYPE = 0
CLASSIFICATION_TYPE = U
NORAD_CAT_ID   = 68267
ELEMENT_SET_NO = 999
REV_AT_EPOCH   = 228
BSTAR          = -.18303E-2
MEAN_MOTION_DOT = -.1016638E-1
MEAN_MOTION_DDOT = .34578E-3

CCSDS_OMM_VERS = 2.0
CREATION_DATE  = 
ORIGINATOR     = 

OBJECT_NAME    = STARLINK-36999
OBJECT_ID      = 2026-055G
CENTER_NAME    = EARTH
REF_FRAME      = TEME
TIME_SYSTEM    = UTC
MEAN_ELEMENT_THEORY = SGP/SGP4

EPOCH          = 2026-03-26T04:00:01.999584
MEAN_MOTION    = 16.01078079
ECCENTRICITY   = .0000653
INCLINATION    = 53.1595
RA_OF_ASC_NODE = 255.3609
ARG_OF_PERICENTER = 80.9150
MEAN_ANOMALY   = 105.3935

EPHEMERIS_TYPE = 0
CLASSIFICATION_TYPE = U
NORAD_CAT_ID   = 68268
ELEMENT_SET_NO = 999
REV_AT_EPOCH   = 228
BSTAR          = -.18203E-2
MEAN_MOTION_DOT = -.1018472E-1
MEAN_MOTION_DDOT = .34739E-3

CCSDS_OMM_VERS = 2.0
CREATION_DATE  = 
ORIGINATOR     = 

OBJECT_NAME    = STARLINK-36962
OBJECT_ID      = 2026-055H
CENTER_NAME    = EARTH
REF_FRAME      = TEME
TIME_SYSTEM    = UTC
MEAN_ELEMENT_THEORY = SGP/SGP4

EPOCH          = 2026-03-26T04:00:01.999584
MEAN_MOTION    = 16.01210977
ECCENTRICITY   = .0000725
INCLINATION    = 53.1594
RA_OF_ASC_NODE = 255.3565
ARG_OF_PERICENTER = 84.7676
MEAN_ANOMALY   = 103.5945

EPHEMERIS_TYPE = 0
CLASSIFICATION_TYPE = U
NORAD_CAT_ID   = 68269
ELEMENT_SET_NO = 999
REV_AT_EPOCH   = 228
BSTAR          = -.18028E-2
MEAN_MOTION_DOT = -.1016541E-1
MEAN_MOTION_DDOT = .3467E-3

